STARLINK-36573          
1 67539U 26014H   26042.90553152  .00172742  00000+0  88246-3 0  9990
2 67539  97.2847 286.5528 0001489  74.3829 285.7604 15.80874720  4514
STARLINK-36585          
1 67540U 26014J   26042.92235729  .00113849  00000+0  75238-3 0  9991
2 67540  97.2859 286.5268 0001331  97.0257 263.1160 15.75240480  4514
STARLINK-36579          
1 67541U 26014K   26042.91668981  .00025115  00000+0  16897-3 0  9995
2 67541  97.2851 286.5435 0001271  97.0277 274.9553 15.75161218  4548
STARLINK-35934          
1 67542U 26014L   26042.90189611  .00171288  00000+0  87516-3 0  9992
2 67542  97.2846 286.5577 0001703  34.7385 325.3994 15.80875169  4507
STARLINK-36581          
1 67543U 26014M   26042.90070299  .00206468  00000+0  10499-2 0  9998
2 67543  97.2846 286.5586 0001540  82.9590 277.1853 15.80887987  4510
STARLINK-36565          
1 67544U 26014N   26042.89964384  .00176603  00000+0  90185-3 0  9992
2 67544  97.2844 286.5603 0001244  82.2619 277.8790 15.80872867  4513
STARLINK-36583          
1 67545U 26014P   26042.85495205  .00123891  00000+0  81804-3 0  9999
2 67545  97.2855 286.4667 0001262  88.2784 271.8626 15.75231188  4504
STARLINK-36580          
1 67546U 26014Q   26042.91668981 -.00039671  00000+0 -26613-3 0  9991
2 67546  97.2854 286.5755 0001648  80.3530  11.5961 15.75206589  4545
STARLINK-36584          
1 67547U 26014R   26042.95954433  .00484368  00000+0  23805-2 0  9990
2 67547  97.2864 286.6251 0000927 151.7154 208.4165 15.80917388  4526
STARLINK-36586          
1 67548U 26014S   26042.89487728  .00216667  00000+0  11005-2 0  9996
2 67548  97.2841 286.5674 0001430  86.9045 273.2387 15.80886312  4515
STARLINK-36564          
1 67549U 26014T   26042.91668981  .00072919  00000+0  48694-3 0  9997
2 67549  97.2854 286.5569 0001317 104.2278 301.7712 15.75125470  4489
STARLINK-36563          
1 67550U 26014U   26042.91668981  .00019812  00000+0  13360-3 0  9994
2 67550  97.2853 286.5665 0001335  94.6220 335.3663 15.75152674  4547
