CCSDS_OMM_VERS = 2.0
CREATION_DATE  = 
ORIGINATOR     = 

OBJECT_NAME    = STARLINK-36573
OBJECT_ID      = 2026-014H
CENTER_NAME    = EARTH
REF_FRAME      = TEME
TIME_SYSTEM    = UTC
MEAN_ELEMENT_THEORY = SGP/SGP4

EPOCH          = 2026-02-11T21:43:57.923328
MEAN_MOTION    = 15.80874720
ECCENTRICITY   = .00014891
INCLINATION    = 97.2847
RA_OF_ASC_NODE = 286.5528
ARG_OF_PERICENTER = 74.3829
MEAN_ANOMALY   = 285.7604

EPHEMERIS_TYPE = 0
CLASSIFICATION_TYPE = U
NORAD_CAT_ID   = 67539
ELEMENT_SET_NO = 999
REV_AT_EPOCH   = 451
BSTAR          = .88245842E-3
MEAN_MOTION_DOT = .172742E-2
MEAN_MOTION_DDOT = 0

CCSDS_OMM_VERS = 2.0
CREATION_DATE  = 
ORIGINATOR     = 

OBJECT_NAME    = STARLINK-36585
OBJECT_ID      = 2026-014J
CENTER_NAME    = EARTH
REF_FRAME      = TEME
TIME_SYSTEM    = UTC
MEAN_ELEMENT_THEORY = SGP/SGP4

EPOCH          = 2026-02-11T22:08:11.669856
MEAN_MOTION    = 15.75240480
ECCENTRICITY   = .00013311
INCLINATION    = 97.2859
RA_OF_ASC_NODE = 286.5268
ARG_OF_PERICENTER = 97.0257
MEAN_ANOMALY   = 263.1160

EPHEMERIS_TYPE = 0
CLASSIFICATION_TYPE = U
NORAD_CAT_ID   = 67540
ELEMENT_SET_NO = 999
REV_AT_EPOCH   = 451
BSTAR          = .75238426E-3
MEAN_MOTION_DOT = .113849E-2
MEAN_MOTION_DDOT = 0

CCSDS_OMM_VERS = 2.0
CREATION_DATE  = 
ORIGINATOR     = 

OBJECT_NAME    = STARLINK-36579
OBJECT_ID      = 2026-014K
CENTER_NAME    = EARTH
REF_FRAME      = TEME
TIME_SYSTEM    = UTC
MEAN_ELEMENT_THEORY = SGP/SGP4

EPOCH          = 2026-02-11T22:00:01.999584
MEAN_MOTION    = 15.75161218
ECCENTRICITY   = .00012711
INCLINATION    = 97.2851
RA_OF_ASC_NODE = 286.5435
ARG_OF_PERICENTER = 97.0277
MEAN_ANOMALY   = 274.9553

EPHEMERIS_TYPE = 0
CLASSIFICATION_TYPE = U
NORAD_CAT_ID   = 67541
ELEMENT_SET_NO = 999
REV_AT_EPOCH   = 454
BSTAR          = .16896839E-3
MEAN_MOTION_DOT = .25115E-3
MEAN_MOTION_DDOT = 0

CCSDS_OMM_VERS = 2.0
CREATION_DATE  = 
ORIGINATOR     = 

OBJECT_NAME    = STARLINK-35934
OBJECT_ID      = 2026-014L
CENTER_NAME    = EARTH
REF_FRAME      = TEME
TIME_SYSTEM    = UTC
MEAN_ELEMENT_THEORY = SGP/SGP4

EPOCH          = 2026-02-11T21:38:43.823904
MEAN_MOTION    = 15.80875169
ECCENTRICITY   = .0001703
INCLINATION    = 97.2846
RA_OF_ASC_NODE = 286.5577
ARG_OF_PERICENTER = 34.7385
MEAN_ANOMALY   = 325.3994

EPHEMERIS_TYPE = 0
CLASSIFICATION_TYPE = U
NORAD_CAT_ID   = 67542
ELEMENT_SET_NO = 999
REV_AT_EPOCH   = 450
BSTAR          = .87515808E-3
MEAN_MOTION_DOT = .171288E-2
MEAN_MOTION_DDOT = 0

CCSDS_OMM_VERS = 2.0
CREATION_DATE  = 
ORIGINATOR     = 

OBJECT_NAME    = STARLINK-36581
OBJECT_ID      = 2026-014M
CENTER_NAME    = EARTH
REF_FRAME      = TEME
TIME_SYSTEM    = UTC
MEAN_ELEMENT_THEORY = SGP/SGP4

EPOCH          = 2026-02-11T21:37:00.738336
MEAN_MOTION    = 15.80887987
ECCENTRICITY   = .00015404
INCLINATION    = 97.2846
RA_OF_ASC_NODE = 286.5586
ARG_OF_PERICENTER = 82.9590
MEAN_ANOMALY   = 277.1853

EPHEMERIS_TYPE = 0
CLASSIFICATION_TYPE = U
NORAD_CAT_ID   = 67543
ELEMENT_SET_NO = 999
REV_AT_EPOCH   = 451
BSTAR          = .10498751E-2
MEAN_MOTION_DOT = .206468E-2
MEAN_MOTION_DDOT = 0

CCSDS_OMM_VERS = 2.0
CREATION_DATE  = 
ORIGINATOR     = 

OBJECT_NAME    = STARLINK-36565
OBJECT_ID      = 2026-014N
CENTER_NAME    = EARTH
REF_FRAME      = TEME
TIME_SYSTEM    = UTC
MEAN_ELEMENT_THEORY = SGP/SGP4

EPOCH          = 2026-02-11T21:35:29.227776
MEAN_MOTION    = 15.80872867
ECCENTRICITY   = .0001244
INCLINATION    = 97.2844
RA_OF_ASC_NODE = 286.5603
ARG_OF_PERICENTER = 82.2619
MEAN_ANOMALY   = 277.8790

EPHEMERIS_TYPE = 0
CLASSIFICATION_TYPE = U
NORAD_CAT_ID   = 67544
ELEMENT_SET_NO = 999
REV_AT_EPOCH   = 451
BSTAR          = .90184812E-3
MEAN_MOTION_DOT = .176603E-2
MEAN_MOTION_DDOT = 0

CCSDS_OMM_VERS = 2.0
CREATION_DATE  = 
ORIGINATOR     = 

OBJECT_NAME    = STARLINK-36583
OBJECT_ID      = 2026-014P
CENTER_NAME    = EARTH
REF_FRAME      = TEME
TIME_SYSTEM    = UTC
MEAN_ELEMENT_THEORY = SGP/SGP4

EPOCH          = 2026-02-11T20:31:07.857120
MEAN_MOTION    = 15.75231188
ECCENTRICITY   = .00012621
INCLINATION    = 97.2855
RA_OF_ASC_NODE = 286.4667
ARG_OF_PERICENTER = 88.2784
MEAN_ANOMALY   = 271.8626

EPHEMERIS_TYPE = 0
CLASSIFICATION_TYPE = U
NORAD_CAT_ID   = 67545
ELEMENT_SET_NO = 999
REV_AT_EPOCH   = 450
BSTAR          = .81803791E-3
MEAN_MOTION_DOT = .123891E-2
MEAN_MOTION_DDOT = 0

CCSDS_OMM_VERS = 2.0
CREATION_DATE  = 
ORIGINATOR     = 

OBJECT_NAME    = STARLINK-36580
OBJECT_ID      = 2026-014Q
CENTER_NAME    = EARTH
REF_FRAME      = TEME
TIME_SYSTEM    = UTC
MEAN_ELEMENT_THEORY = SGP/SGP4

EPOCH          = 2026-02-11T22:00:01.999584
MEAN_MOTION    = 15.75206589
ECCENTRICITY   = .00016482
INCLINATION    = 97.2854
RA_OF_ASC_NODE = 286.5755
ARG_OF_PERICENTER = 80.3530
MEAN_ANOMALY   = 11.5961

EPHEMERIS_TYPE = 0
CLASSIFICATION_TYPE = U
NORAD_CAT_ID   = 67546
ELEMENT_SET_NO = 999
REV_AT_EPOCH   = 454
BSTAR          = -.26613245E-3
MEAN_MOTION_DOT = -.39671E-3
MEAN_MOTION_DDOT = 0

CCSDS_OMM_VERS = 2.0
CREATION_DATE  = 
ORIGINATOR     = 

OBJECT_NAME    = STARLINK-36584
OBJECT_ID      = 2026-014R
CENTER_NAME    = EARTH
REF_FRAME      = TEME
TIME_SYSTEM    = UTC
MEAN_ELEMENT_THEORY = SGP/SGP4

EPOCH          = 2026-02-11T23:01:44.630112
MEAN_MOTION    = 15.80917388
ECCENTRICITY   = .00009274
INCLINATION    = 97.2864
RA_OF_ASC_NODE = 286.6251
ARG_OF_PERICENTER = 151.7154
MEAN_ANOMALY   = 208.4165

EPHEMERIS_TYPE = 0
CLASSIFICATION_TYPE = U
NORAD_CAT_ID   = 67547
ELEMENT_SET_NO = 999
REV_AT_EPOCH   = 452
BSTAR          = .23805406E-2
MEAN_MOTION_DOT = .484368E-2
MEAN_MOTION_DDOT = 0

CCSDS_OMM_VERS = 2.0
CREATION_DATE  = 
ORIGINATOR     = 

OBJECT_NAME    = STARLINK-36586
OBJECT_ID      = 2026-014S
CENTER_NAME    = EARTH
REF_FRAME      = TEME
TIME_SYSTEM    = UTC
MEAN_ELEMENT_THEORY = SGP/SGP4

EPOCH          = 2026-02-11T21:28:37.396992
MEAN_MOTION    = 15.80886312
ECCENTRICITY   = .00014305
INCLINATION    = 97.2841
RA_OF_ASC_NODE = 286.5674
ARG_OF_PERICENTER = 86.9045
MEAN_ANOMALY   = 273.2387

EPHEMERIS_TYPE = 0
CLASSIFICATION_TYPE = U
NORAD_CAT_ID   = 67548
ELEMENT_SET_NO = 999
REV_AT_EPOCH   = 451
BSTAR          = .11004924E-2
MEAN_MOTION_DOT = .216667E-2
MEAN_MOTION_DDOT = 0

CCSDS_OMM_VERS = 2.0
CREATION_DATE  = 
ORIGINATOR     = 

OBJECT_NAME    = STARLINK-36564
OBJECT_ID      = 2026-014T
CENTER_NAME    = EARTH
REF_FRAME      = TEME
TIME_SYSTEM    = UTC
MEAN_ELEMENT_THEORY = SGP/SGP4

EPOCH          = 2026-02-11T22:00:01.999584
MEAN_MOTION    = 15.75125470
ECCENTRICITY   = .00013173
INCLINATION    = 97.2854
RA_OF_ASC_NODE = 286.5569
ARG_OF_PERICENTER = 104.2278
MEAN_ANOMALY   = 301.7712

EPHEMERIS_TYPE = 0
CLASSIFICATION_TYPE = U
NORAD_CAT_ID   = 67549
ELEMENT_SET_NO = 999
REV_AT_EPOCH   = 448
BSTAR          = .48693905E-3
MEAN_MOTION_DOT = .72919E-3
MEAN_MOTION_DDOT = 0

CCSDS_OMM_VERS = 2.0
CREATION_DATE  = 
ORIGINATOR     = 

OBJECT_NAME    = STARLINK-36563
OBJECT_ID      = 2026-014U
CENTER_NAME    = EARTH
REF_FRAME      = TEME
TIME_SYSTEM    = UTC
MEAN_ELEMENT_THEORY = SGP/SGP4

EPOCH          = 2026-02-11T22:00:01.999584
MEAN_MOTION    = 15.75152674
ECCENTRICITY   = .00013355
INCLINATION    = 97.2853
RA_OF_ASC_NODE = 286.5665
ARG_OF_PERICENTER = 94.6220
MEAN_ANOMALY   = 335.3663

EPHEMERIS_TYPE = 0
CLASSIFICATION_TYPE = U
NORAD_CAT_ID   = 67550
ELEMENT_SET_NO = 999
REV_AT_EPOCH   = 454
BSTAR          = .13360076E-3
MEAN_MOTION_DOT = .19812E-3
MEAN_MOTION_DDOT = 0

